[{"OBJECT_NAME":"MATS","OBJECT_ID":"2022-147A","EPOCH":"2026-03-09T23:39:00.807264","MEAN_MOTION":15.0466868,"ECCENTRICITY":0.00129708,"INCLINATION":97.6844,"RA_OF_ASC_NODE":71.061,"ARG_OF_PERICENTER":166.9988,"MEAN_ANOMALY":193.1575,"EPHEMERIS_TYPE":0,"CLASSIFICATION_TYPE":"U","NORAD_CAT_ID":54227,"ELEMENT_SET_NO":999,"REV_AT_EPOCH":18284,"BSTAR":0.00029670702,"MEAN_MOTION_DOT":4.118e-5,"MEAN_MOTION_DDOT":0},{"OBJECT_NAME":"STARLINK-34809","OBJECT_ID":"2025-165P","EPOCH":"2026-03-09T17:17:32.677440","MEAN_MOTION":15.05641231,"ECCENTRICITY":0.00014451,"INCLINATION":97.6018,"RA_OF_ASC_NODE":147.2388,"ARG_OF_PERICENTER":90.5075,"MEAN_ANOMALY":269.6317,"EPHEMERIS_TYPE":0,"CLASSIFICATION_TYPE":"U","NORAD_CAT_ID":65069,"ELEMENT_SET_NO":999,"REV_AT_EPOCH":3479,"BSTAR":0.00029193713,"MEAN_MOTION_DOT":4.153e-5,"MEAN_MOTION_DDOT":0}]
